NORAD_CAT_ID,OBJECT_NAME,OBJECT_TYPE,EPOCH,MEAN_MOTION,ECCENTRICITY,INCLINATION,RA_OF_ASC_NODE,ARG_OF_PERICENTER,MEAN_ANOMALY,BSTAR,MEAN_MOTION_DOT,MEAN_MOTION_DDOT,TLE_LINE0,TLE_LINE1,TLE_LINE2,SEMIMAJOR_AXIS,PERIOD,APOGEE,PERIGEE,DECAYED
52989.0,STARLINK-4293,PAYLOAD,2023-05-29 19:36:26,15.08839995,9.96e-05,53.2168,340.0595,88.6675,271.4431,2.6496e-05,1.34e-06,0.0,0 STARLINK-4293,1 52989U 22076D   23149.81696971  .00000134  00000-0  26496-4 0  9995,2 52989  53.2168 340.0595 0000996  88.6675 271.4431 15.08839995 49495,6917.88,95.438,540.434,539.056,0.0
52989.0,STARLINK-4293,PAYLOAD,2023-05-30 13:05:40,15.08839755,9.91e-05,53.2168,336.7885,87.5772,272.5333,2.0552e-05,3.9e-07,0.0,0 STARLINK-4293,1 52989U 22076D   23150.54561092  .00000039  00000-0  20552-4 0  9993,2 52989  53.2168 336.7885 0000991  87.5772 272.5333 15.08839755 49600,6917.881,95.438,540.432,539.061,0.0
52989.0,STARLINK-4293,PAYLOAD,2023-05-30 16:16:27,15.08841318,0.0001005,53.2168,336.194,89.228,270.8827,4.9499e-05,5e-06,0.0,0 STARLINK-4293,1 52989U 22076D   23150.67809037  .00000500  00000-0  49499-4 0  9995,2 52989  53.2168 336.1940 0001005  89.2280 270.8827 15.08841318 49625,6917.876,95.437,540.437,539.046,0.0
52989.0,STARLINK-4293,PAYLOAD,2023-05-30 17:51:50,15.08842687,0.0001004,53.2167,335.8968,89.3319,270.7788,7.4343e-05,8.96e-06,0.0,0 STARLINK-4293,1 52989U 22076D   23150.74432978  .00000896  00000-0  74343-4 0  9993,2 52989  53.2167 335.8968 0001004  89.3319 270.7788 15.08842687 50103,6917.872,95.437,540.432,539.043,0.0
52989.0,STARLINK-4293,PAYLOAD,2023-05-31 12:56:28,15.08834689,0.0001007,53.2163,332.3294,96.7181,263.3925,2.6608e-05,1.36e-06,0.0,0 STARLINK-4293,1 52989U 22076D   23151.53921363  .00000136  00000-0  26608-4 0  9990,2 52989  53.2163 332.3294 0001007  96.7181 263.3925 15.08834689 49758,6917.897,95.438,540.458,539.065,0.0
52989.0,STARLINK-4293,PAYLOAD,2023-05-31 19:18:00,15.08839441,0.0001013,53.2162,331.1403,98.5016,261.6091,0.00011227,1.499e-05,0.0,0 STARLINK-4293,1 52989U 22076D   23151.80417238  .00001499  00000-0  11227-3 0  9994,2 52989  53.2162 331.1403 0001013  98.5016 261.6091 15.08839441 50264,6917.882,95.438,540.448,539.046,0.0
52989.0,STARLINK-4293,PAYLOAD,2023-06-01 04:50:19,15.08839324,0.0001047,53.2161,329.3563,101.2607,258.8503,8.9836e-05,1.142e-05,0.0,0 STARLINK-4293,1 52989U 22076D   23152.20161292  .00001142  00000-0  89836-4 0  9992,2 52989  53.2161 329.3563 0001047 101.2607 258.8503 15.08839324 49853,6917.882,95.438,540.472,539.023,0.0
52989.0,STARLINK-4293,PAYLOAD,2023-06-01 14:22:38,15.08838358,0.0001055,53.2162,327.5714,100.4103,259.7008,4.3698e-05,4.08e-06,0.0,0 STARLINK-4293,1 52989U 22076D   23152.59905377  .00000408  00000-0  43698-4 0  9994,2 52989  53.2162 327.5714 0001055 100.4103 259.7008 15.08838358 49916,6917.885,95.438,540.48,539.021,0.0
52989.0,STARLINK-4293,PAYLOAD,2023-06-02 11:02:39,15.08834462,0.0001122,53.2165,323.7048,85.7686,274.3434,5.8776e-05,6.48e-06,0.0,0 STARLINK-4293,1 52989U 22076D   23153.46017804  .00000648  00000-0  58776-4 0  9999,2 52989  53.2165 323.7048 0001122  85.7686 274.3434 15.08834462 50519,6917.897,95.438,540.539,538.986,0.0
52989.0,STARLINK-4293,PAYLOAD,2023-06-02 18:59:35,15.08839828,0.0001026,53.2175,322.2178,87.9087,272.2023,4.8904e-05,4.91e-06,0.0,0 STARLINK-4293,1 52989U 22076D   23153.79137834  .00000491  00000-0  48904-4 0  9999,2 52989  53.2175 322.2178 0001026  87.9087 272.2023 15.08839828 50095,6917.881,95.438,540.456,539.036,0.0
52989.0,STARLINK-4293,PAYLOAD,2023-06-03 10:53:26,15.08832329,9.98e-05,53.2176,319.2438,91.5241,268.5866,0.0001855,2.665e-05,0.0,0 STARLINK-4293,1 52989U 22076D   23154.45378078  .00002665  00000-0  18550-3 0  9998,2 52989  53.2176 319.2438 0000998  91.5241 268.5866 15.08832329 50194,6917.904,95.438,540.459,539.078,0.0
52989.0,STARLINK-4293,PAYLOAD,2023-06-03 17:14:58,15.08838683,9.54e-05,53.2175,318.0545,89.8739,270.2363,0.00017939,2.568e-05,0.0,0 STARLINK-4293,1 52989U 22076D   23154.71873713  .00002568  00000-0  17939-3 0  9995,2 52989  53.2175 318.0545 0000954  89.8739 270.2363 15.08838683 50701,6917.884,95.438,540.409,539.089,0.0
52989.0,STARLINK-4293,PAYLOAD,2023-06-04 13:54:59,15.08836495,9.95e-05,53.2172,314.1896,81.2958,278.8147,0.00010558,1.393e-05,0.0,0 STARLINK-4293,1 52989U 22076D   23155.57985937  .00001393  00000-0  10558-3 0  9997,2 52989  53.2172 314.1896 0000995  81.2958 278.8147 15.08836495 50363,6917.891,95.438,540.444,539.068,0.0
52989.0,STARLINK-4293,PAYLOAD,2023-06-04 20:16:31,15.08845485,0.000102,53.2173,312.9989,88.4426,271.6683,0.00012796,1.75e-05,0.0,0 STARLINK-4293,1 52989U 22076D   23155.84481283  .00001750  00000-0  12796-3 0  9995,2 52989  53.2173 312.9989 0001020  88.4426 271.6683 15.08845485 50402,6917.864,95.437,540.434,539.023,0.0
52989.0,STARLINK-4293,PAYLOAD,2023-06-05 10:35:00,15.08841364,0.0001167,53.2171,310.3211,101.5102,258.6022,4.2222e-05,3.84e-06,0.0,0 STARLINK-4293,1 52989U 22076D   23156.44097683  .00000384  00000-0  42222-4 0  9999,2 52989  53.2171 310.3211 0001167 101.5102 258.6022 15.08841364 50965,6917.876,95.437,540.549,538.934,0.0
52989.0,STARLINK-4293,PAYLOAD,2023-06-05 13:45:46,15.08843272,0.0001131,53.217,309.7266,99.522,260.59,5.8849e-05,6.49e-06,0.0,0 STARLINK-4293,1 52989U 22076D   23156.57345510  .00000649  00000-0  58849-4 0  9994,2 52989  53.2170 309.7266 0001131  99.5220 260.5900 15.08843272 50512,6917.87,95.437,540.518,538.953,0.0
52989.0,STARLINK-4293,PAYLOAD,2023-06-05 16:56:32,15.08846662,9.75e-05,53.2172,309.1333,88.0392,272.0712,4.803e-05,4.77e-06,0.0,0 STARLINK-4293,1 52989U 22076D   23156.70593296  .00000477  00000-0  48030-4 0  9995,2 52989  53.2172 309.1333 0000975  88.0392 272.0712 15.08846662 50538,6917.86,95.437,540.4,539.051,0.0
52989.0,STARLINK-4293,PAYLOAD,2023-06-06 08:50:24,15.08837946,0.0001004,53.2168,306.1612,76.1794,283.931,4.9755e-05,5.04e-06,0.0,0 STARLINK-4293,1 52989U 22076D   23157.36833828  .00000504  00000-0  49755-4 0  9992,2 52989  53.2168 306.1612 0001004  76.1794 283.9310 15.08837946 50639,6917.887,95.438,540.446,539.057,0.0
52989.0,STARLINK-4293,PAYLOAD,2023-06-06 15:11:57,15.08837053,9.95e-05,53.217,304.9699,88.5307,271.5799,2.4676e-05,1.05e-06,0.0,0 STARLINK-4293,1 52989U 22076D   23157.63329956  .00000105  00000-0  24676-4 0  9996,2 52989  53.2170 304.9699 0000995  88.5307 271.5799 15.08837053 51148,6917.889,95.438,540.443,539.066,0.0
52989.0,STARLINK-4293,PAYLOAD,2023-06-07 11:51:58,15.08834728,0.000101,53.2175,301.1043,84.6567,275.454,-7.3291e-06,-4.04e-06,0.0,0 STARLINK-4293,1 52989U 22076D   23158.49442420 -.00000404  00000-0 -73291-5 0  9995,2 52989  53.2175 301.1043 0001010  84.6567 275.4540 15.08834728 50804,6917.897,95.438,540.46,539.063,0.0
52989.0,STARLINK-4293,PAYLOAD,2023-06-07 16:38:07,15.08842236,9.69e-05,53.2176,300.213,80.9771,279.1331,5.8071e-05,6.37e-06,0.0,0 STARLINK-4293,1 52989U 22076D   23158.69313789  .00000637  00000-0  58071-4 0  9996,2 52989  53.2176 300.2130 0000969  80.9771 279.1331 15.08842236 51308,6917.874,95.437,540.409,539.068,0.0
52989.0,STARLINK-4293,PAYLOAD,2023-06-07 19:48:53,15.08843848,9.84e-05,53.2175,299.6181,79.809,280.3013,6.8719e-05,8.06e-06,0.0,0 STARLINK-4293,1 52989U 22076D   23158.82561666  .00000806  00000-0  68719-4 0  9998,2 52989  53.2175 299.6181 0000984  79.8090 280.3013 15.08843848 50852,6917.869,95.437,540.414,539.053,0.0
52989.0,STARLINK-4293,PAYLOAD,2023-06-08 08:31:59,15.08833877,0.000103,53.2174,297.2402,88.3573,271.7537,7.7025e-05,9.38e-06,0.0,0 STARLINK-4293,1 52989U 22076D   23159.35554402  .00000938  00000-0  77025-4 0  9993,2 52989  53.2174 297.2402 0001030  88.3573 271.7537 15.08833877 51403,6917.899,95.438,540.477,539.052,0.0
52989.0,STARLINK-4293,PAYLOAD,2023-06-08 13:18:08,15.08833269,0.0001064,53.2174,296.3481,88.2742,271.8372,8.6599e-05,1.09e-05,0.0,0 STARLINK-4293,1 52989U 22076D   23159.55426494  .00001090  00000-0  86599-4 0  9990,2 52989  53.2174 296.3481 0001064  88.2742 271.8372 15.08833269 50967,6917.901,95.438,540.502,539.03,0.0
52989.0,STARLINK-4293,PAYLOAD,2023-06-08 21:15:03,15.08847722,0.0001051,53.2171,294.8607,87.1882,272.9231,0.00012811,1.752e-05,0.0,0 STARLINK-4293,1 52989U 22076D   23159.88545507  .00001752  00000-0  12811-3 0  9993,2 52989  53.2171 294.8607 0001051  87.1882 272.9231 15.08847722 51489,6917.857,95.437,540.449,538.995,0.0
52989.0,STARLINK-4293,PAYLOAD,2023-06-09 11:33:32,15.08834707,0.0001027,53.2171,292.1845,92.2231,267.8878,1.4613e-05,-5.5e-07,0.0,0 STARLINK-4293,1 52989U 22076D   23160.48162921 -.00000055  00000-0  14613-4 0  9995,2 52989  53.2171 292.1845 0001027  92.2231 267.8878 15.08834707 51100,6917.897,95.438,540.472,539.051,0.0
52989.0,STARLINK-4293,PAYLOAD,2023-06-09 13:08:55,15.0883477,0.0001018,53.2173,291.8878,79.7717,280.339,2.1914e-05,6.1e-07,0.0,0 STARLINK-4293,1 52989U 22076D   23160.54786939  .00000061  00000-0  21914-4 0  9991,2 52989  53.2173 291.8878 0001018  79.7717 280.3390 15.08834770 51584,6917.896,95.438,540.466,539.057,0.0
52989.0,STARLINK-4293,PAYLOAD,2023-06-09 16:19:41,15.08839671,0.0001018,53.217,291.2928,84.3971,275.7137,5.9964e-05,6.67e-06,0.0,0 STARLINK-4293,1 52989U 22076D   23160.68034562  .00000667  00000-0  59964-4 0  9992,2 52989  53.2170 291.2928 0001018  84.3971 275.7137 15.08839671 51138,6917.881,95.438,540.451,539.042,0.0
52989.0,STARLINK-4293,PAYLOAD,2023-06-10 03:27:23,15.08846531,0.0001071,53.2174,289.2112,83.0828,277.0286,0.00011691,1.574e-05,0.0,0 STARLINK-4293,1 52989U 22076D   23161.14401986  .00001574  00000-0  11691-3 0  9994,2 52989  53.2174 289.2112 0001071  83.0828 277.0286 15.08846531 51672,6917.86,95.437,540.466,538.985,0.0
52989.0,STARLINK-4293,PAYLOAD,2023-06-10 14:35:04,15.08853865,0.0001057,53.2163,287.1296,78.8713,281.2398,0.00030158,4.517e-05,0.0,0 STARLINK-4293,1 52989U 22076D   23161.60769634  .00004517  00000-0  30158-3 0  9991,2 52989  53.2163 287.1296 0001057  78.8713 281.2398 15.08853865 51274,6917.838,95.437,540.434,538.972,0.0
